{
  "type": "FeatureCollection",
  "features": [
    {
      "type": "Feature",
      "properties": {
        "norad_id": 35144,
        "name": "FENGYUN 1C DEB",
        "group": "fengyun-1c-debris",
        "lat": 65.76540851149235,
        "lon": -53.82855089797472,
        "alt_km": 699.4871267057642,
        "timestamp": "2025-12-16T17:51:11.219096+00:00",
        "meta_object_name": "FENGYUN 1C DEB",
        "meta_object_id": "1999-025DLY",
        "meta_epoch": "2025-12-15T03:29:25.584864",
        "meta_mean_motion": 14.59259684,
        "meta_eccentricity": 0.00266192,
        "meta_inclination": 98.6997,
        "meta_ra_of_asc_node": 104.611,
        "meta_arg_of_pericenter": 353.8009,
        "meta_mean_anomaly": 6.2856,
        "meta_ephemeris_type": 0,
        "meta_classification_type": "U",
        "meta_norad_cat_id": 35144,
        "meta_element_set_no": 999,
        "meta_rev_at_epoch": 65248,
        "meta_bstar": 0.0015089834,
        "meta_mean_motion_dot": 7.114e-05,
        "meta_mean_motion_ddot": 0,
        "tle_line1": "1 35144U 99025DLY 25349.14543501  .00007114  00000+0  15090-2 0  9997",
        "tle_line2": "2 35144  98.6997 104.6110 0026619 353.8009   6.2856 14.59259684652487"
      },
      "geometry": {
        "type": "Point",
        "coordinates": [
          -53.82855089797472,
          65.76540851149235
        ]
      }
    },
    {
      "type": "Feature",
      "properties": {
        "norad_id": 35147,
        "name": "FENGYUN 1C DEB",
        "group": "fengyun-1c-debris",
        "lat": 19.313895137643552,
        "lon": -111.9262087081371,
        "alt_km": 629.7369380600903,
        "timestamp": "2025-12-16T17:51:11.219105+00:00",
        "meta_object_name": "FENGYUN 1C DEB",
        "meta_object_id": "1999-025DMB",
        "meta_epoch": "2025-12-14T11:22:48.077184",
        "meta_mean_motion": 14.74368233,
        "meta_eccentricity": 0.00274446,
        "meta_inclination": 99.4866,
        "meta_ra_of_asc_node": 62.0604,
        "meta_arg_of_pericenter": 193.476,
        "meta_mean_anomaly": 166.5714,
        "meta_ephemeris_type": 0,
        "meta_classification_type": "U",
        "meta_norad_cat_id": 35147,
        "meta_element_set_no": 999,
        "meta_rev_at_epoch": 74330,
        "meta_bstar": 0.0027922421,
        "meta_mean_motion_dot": 0.00018603,
        "meta_mean_motion_ddot": 0,
        "tle_line1": "1 35147U 99025DMB 25348.47416756  .00018603  00000+0  27922-2 0  9998",
        "tle_line2": "2 35147  99.4866  62.0604 0027444 193.4760 166.5714 14.74368233743301"
      },
      "geometry": {
        "type": "Point",
        "coordinates": [
          -111.9262087081371,
          19.313895137643552
        ]
      }
    },
    {
      "type": "Feature",
      "properties": {
        "norad_id": 35152,
        "name": "FENGYUN 1C DEB",
        "group": "fengyun-1c-debris",
        "lat": -76.1563180670536,
        "lon": -141.79451869799203,
        "alt_km": 969.2324566820234,
        "timestamp": "2025-12-16T17:51:11.219116+00:00",
        "meta_object_name": "FENGYUN 1C DEB",
        "meta_object_id": "1999-025DMG",
        "meta_epoch": "2025-12-09T06:32:50.767584",
        "meta_mean_motion": 13.76426124,
        "meta_eccentricity": 0.019481,
        "meta_inclination": 99.8191,
        "meta_ra_of_asc_node": 165.8523,
        "meta_arg_of_pericenter": 24.4192,
        "meta_mean_anomaly": 336.6036,
        "meta_ephemeris_type": 0,
        "meta_classification_type": "U",
        "meta_norad_cat_id": 35152,
        "meta_element_set_no": 999,
        "meta_rev_at_epoch": 62145,
        "meta_bstar": 0.0008876,
        "meta_mean_motion_dot": 9.5e-06,
        "meta_mean_motion_ddot": 0,
        "tle_line1": "1 35152U 99025DMG 25343.27280981  .00000950  00000+0  88760-3 0  9990",
        "tle_line2": "2 35152  99.8191 165.8523 0194810  24.4192 336.6036 13.76426124621451"
      },
      "geometry": {
        "type": "Point",
        "coordinates": [
          -141.79451869799203,
          -76.1563180670536
        ]
      }
    },
    {
      "type": "Feature",
      "properties": {
        "norad_id": 35153,
        "name": "FENGYUN 1C DEB",
        "group": "fengyun-1c-debris",
        "lat": 74.59384618664284,
        "lon": 97.60615126134785,
        "alt_km": 539.2129079061024,
        "timestamp": "2025-12-16T17:51:11.219126+00:00",
        "meta_object_name": "FENGYUN 1C DEB",
        "meta_object_id": "1999-025DMH",
        "meta_epoch": "2025-12-15T10:26:34.253088",
        "meta_mean_motion": 14.73752008,
        "meta_eccentricity": 0.01711864,
        "meta_inclination": 98.9027,
        "meta_ra_of_asc_node": 241.501,
        "meta_arg_of_pericenter": 74.8151,
        "meta_mean_anomaly": 287.1914,
        "meta_ephemeris_type": 0,
        "meta_classification_type": "U",
        "meta_norad_cat_id": 35153,
        "meta_element_set_no": 999,
        "meta_rev_at_epoch": 97257,
        "meta_bstar": 0.00027078578,
        "meta_mean_motion_dot": 2.167e-05,
        "meta_mean_motion_ddot": 0,
        "tle_line1": "1 35153U 99025DMH 25349.43511867  .00002167  00000+0  27079-3 0  9993",
        "tle_line2": "2 35153  98.9027 241.5010 0171186  74.8151 287.1914 14.73752008972576"
      },
      "geometry": {
        "type": "Point",
        "coordinates": [
          97.60615126134785,
          74.59384618664284
        ]
      }
    },
    {
      "type": "Feature",
      "properties": {
        "norad_id": 35154,
        "name": "FENGYUN 1C DEB",
        "group": "fengyun-1c-debris",
        "lat": -24.339991845008115,
        "lon": 116.78300330423927,
        "alt_km": 760.2782630414767,
        "timestamp": "2025-12-16T17:51:11.219136+00:00",
        "meta_object_name": "FENGYUN 1C DEB",
        "meta_object_id": "1999-025DMJ",
        "meta_epoch": "2025-12-14T01:39:24.585984",
        "meta_mean_motion": 14.18900379,
        "meta_eccentricity": 0.01792994,
        "meta_inclination": 99.4217,
        "meta_ra_of_asc_node": 109.6332,
        "meta_arg_of_pericenter": 38.7298,
        "meta_mean_anomaly": 322.6573,
        "meta_ephemeris_type": 0,
        "meta_classification_type": "U",
        "meta_norad_cat_id": 35154,
        "meta_element_set_no": 999,
        "meta_rev_at_epoch": 64596,
        "meta_bstar": 0.00037357522,
        "meta_mean_motion_dot": 8.63e-06,
        "meta_mean_motion_ddot": 0,
        "tle_line1": "1 35154U 99025DMJ 25348.06903456  .00000863  00000+0  37358-3 0  9993",
        "tle_line2": "2 35154  99.4217 109.6332 0179299  38.7298 322.6573 14.18900379645960"
      },
      "geometry": {
        "type": "Point",
        "coordinates": [
          116.78300330423927,
          -24.339991845008115
        ]
      }
    },
    {
      "type": "Feature",
      "properties": {
        "norad_id": 35155,
        "name": "FENGYUN 1C DEB",
        "group": "fengyun-1c-debris",
        "lat": 74.31070193804307,
        "lon": -145.5744908972326,
        "alt_km": 806.5941692932265,
        "timestamp": "2025-12-16T17:51:11.219147+00:00",
        "meta_object_name": "FENGYUN 1C DEB",
        "meta_object_id": "1999-025DMK",
        "meta_epoch": "2025-12-13T11:32:29.448096",
        "meta_mean_motion": 14.19285709,
        "meta_eccentricity": 0.00260991,
        "meta_inclination": 98.5012,
        "meta_ra_of_asc_node": 359.121,
        "meta_arg_of_pericenter": 70.7543,
        "meta_mean_anomaly": 289.6454,
        "meta_ephemeris_type": 0,
        "meta_classification_type": "U",
        "meta_norad_cat_id": 35155,
        "meta_element_set_no": 999,
        "meta_rev_at_epoch": 72724,
        "meta_bstar": 0.00090034288,
        "meta_mean_motion_dot": 1.854e-05,
        "meta_mean_motion_ddot": 0,
        "tle_line1": "1 35155U 99025DMK 25347.48089639  .00001854  00000+0  90034-3 0  9998",
        "tle_line2": "2 35155  98.5012 359.1210 0026099  70.7543 289.6454 14.19285709727245"
      },
      "geometry": {
        "type": "Point",
        "coordinates": [
          -145.5744908972326,
          74.31070193804307
        ]
      }
    },
    {
      "type": "Feature",
      "properties": {
        "norad_id": 35156,
        "name": "FENGYUN 1C DEB",
        "group": "fengyun-1c-debris",
        "lat": 57.12813602921998,
        "lon": -36.73166732408773,
        "alt_km": 846.4128460724141,
        "timestamp": "2025-12-16T17:51:11.219157+00:00",
        "meta_object_name": "FENGYUN 1C DEB",
        "meta_object_id": "1999-025DML",
        "meta_epoch": "2025-12-12T16:32:42.860544",
        "meta_mean_motion": 14.10626157,
        "meta_eccentricity": 0.00370025,
        "meta_inclination": 98.7527,
        "meta_ra_of_asc_node": 333.1123,
        "meta_arg_of_pericenter": 148.5895,
        "meta_mean_anomaly": 211.7497,
        "meta_ephemeris_type": 0,
        "meta_classification_type": "U",
        "meta_norad_cat_id": 35156,
        "meta_element_set_no": 999,
        "meta_rev_at_epoch": 64043,
        "meta_bstar": 0.00049181464,
        "meta_mean_motion_dot": 8.41e-06,
        "meta_mean_motion_ddot": 0,
        "tle_line1": "1 35156U 99025DML 25346.68938496  .00000841  00000+0  49181-3 0  9996",
        "tle_line2": "2 35156  98.7527 333.1123 0037002 148.5895 211.7497 14.10626157640439"
      },
      "geometry": {
        "type": "Point",
        "coordinates": [
          -36.73166732408773,
          57.12813602921998
        ]
      }
    }
  ]
}